CUTE-1 (CO-55)          
1 27844U 03031E   20040.47743819  .00000042  00000-0  38666-4 0  9990
2 27844  98.6841  50.1460 0010858  71.1660 289.0694 14.22220055861806
CUBESAT XI-IV (CO-57)   
1 27848U 03031J   20039.97412167  .00000031  00000-0  33994-4 0  9993
2 27848  98.6911  50.1929 0010817  83.4169 276.8240 14.21809264861572
CUBESAT XI-V            
1 28895U 05043F   20040.62696325  .00000073  00000-0  22846-4 0  9995
2 28895  97.9880 180.7528 0015979 330.9126  29.1185 14.63735729761996
CUTE-1.7+APD II (CO-65) 
1 32785U 08021C   20039.98941524  .00000185  00000-0  25569-4 0  9997
2 32785  97.5637  33.7745 0012513 196.4386 163.6427 14.88414534638684
AAUSAT-II               
1 32788U 08021F   20040.00767467  .00000064  00000-0  10858-4 0  9998
2 32788  97.4924  50.2635 0012924 126.2376 234.0042 14.94938808640077
DELFI-C3 (DO-64)        
1 32789U 08021G   20040.17283563  .00000740  00000-0  52764-4 0  9990
2 32789  97.4361  87.3953 0013066  45.4014 314.8278 15.07439521642338
SEEDS II (CO-66)        
1 32791U 08021J   20040.07874872  .00000394  00000-0  45217-4 0  9991
2 32791  97.5353  39.9911 0013548 167.4675 192.6883 14.90967789639101
SWISSCUBE               
1 35932U 09051B   20040.46610447  .00000099  00000-0  33485-4 0  9990
2 35932  98.6025 218.6357 0008088 155.8283 204.3295 14.56355922551099
BEESAT-1                
1 35933U 09051C   20040.73014541  .00000095  00000-0  32379-4 0  9991
2 35933  98.6035 220.7503 0006078 165.0044 195.1334 14.56436510551244
ITUPSAT1                
1 35935U 09051E   20040.23722051  .00000074  00000-0  28225-4 0  9992
2 35935  98.6143 220.4582 0008380 167.5510 192.5895 14.55587215550872
TISAT 1                 
1 36799U 10035E   20040.00903555  .00000419  00000-0  48216-4 0  9995
2 36799  98.1792 205.4102 0012930  39.4316 320.7839 14.91265550519631
M-CUBED & EXP-1 PRIME   
1 37855U 11061F   20040.03676469  .00000941  00000-0  54276-4 0  9996
2 37855 101.7263  61.7106 0171960  98.9827 263.0891 15.05983175451720
AEROCUBE 4.5A           
1 38767U 12048K   20040.06818469  .00000250  00000-0  34575-4 0  9999
2 38767  64.6651 280.8625 0156950 179.2738 180.8634 14.92151000 22495
AEROCUBE 4.5B           
1 38768U 12048L   20040.05871801  .00000638  00000-0  60522-4 0  9999
2 38768  64.6650 251.7136 0145727 176.0113 184.2201 14.95773377 22523
STRAND-1                
1 39090U 13009E   20040.16627368  .00000029  00000-0  25461-4 0  9992
2 39090  98.4668 246.9118 0008342 314.3743  45.6758 14.35117035364140
SOMP                    
1 39134U 13015E   20040.16783883  .00001268  00000-0  65772-4 0  9998
2 39134  64.8640 337.2307 0037753 265.3723  94.3092 15.20726559376395
BEESAT-3                
1 39135U 13015F   20040.25226276  .00001156  00000-0  65267-4 0  9992
2 39135  64.8681 358.6083 0045734 266.4395  93.1500 15.17916524375607
BEESAT-2                
1 39136U 13015G   20040.18165868  .00000759  00000-0  47505-4 0  9997
2 39136  64.8707   3.3882 0030378 278.7683  81.0003 15.17320269375500
NEE-01 PEGASO           
1 39151U 13018B   20040.82259162  .00000139  00000-0  25317-4 0  9998
2 39151  97.9708 140.5739 0017750 153.3748 206.8379 14.80125978366657
ESTCUBE 1               
1 39161U 13021C   20040.76440810  .00000070  00000-0  18893-4 0  9993
2 39161  97.9724 126.3496 0008591 296.7310  63.3009 14.72277938363106
POPACS 1                
1 39268U 13055D   20039.81759873  .00003482  00000-0  96698-4 0  9993
2 39268  81.0007  73.1195 0619456 246.9961 106.4764 14.38447334330825
POPACS 2                
1 39269U 13055E   20039.90788033  .00002153  00000-0  61809-4 0  9994
2 39269  81.0145 108.0447 0679590 337.5482  19.7194 14.24945129327534
POPACS 3                
1 39270U 13055F   20040.23188636  .00000772  00000-0  22569-4 0  9992
2 39270  81.0173 127.6091 0711972  33.8999 330.5624 14.16551990306831
ZACUBE-1 (TSHEPISOSAT)  
1 39417U 13066B   20040.67823034  .00000210  00000-0  32777-4 0  9992
2 39417  97.5624  45.8896 0058385 341.6249  18.2855 14.81219200335971
WNISAT-1                
1 39423U 13066H   20040.41331235  .00000022  00000-0  14667-4 0  9997
2 39423  97.7977 330.7352 0174475 298.2861  60.0824 14.53093697329681
TRITON-1                
1 39427U 13066M   20040.17457254  .00000183  00000-0  36771-4 0  9992
2 39427  97.7084   8.4183 0114737 131.2004 229.9164 14.67939561332888
GOMX-1                  
1 39430U 13066Q   20040.76823608  .00000088  00000-0  25338-4 0  9992
2 39430  97.7766 347.1710 0149698 229.7821 129.0201 14.59346311331036
CUBEBUG-2 (LO-74)       
1 39440U 13066AA  20040.00564810  .00000214  00000-0  36593-4 0  9993
2 39440  97.6192  29.7511 0081187  41.3856 319.3466 14.75954874333480
NEE-02 KRYSAOR          
1 39441U 13066AB  20039.93079121  .00000131  00000-0  25610-4 0  9996
2 39441  97.6254  27.2799 0082866  49.7092 311.1323 14.74977236333310
FUNCUBE-1 (AO-73)       
1 39444U 13066AE  20040.14186223  .00000262  00000-0  38567-4 0  9996
2 39444  97.5581  47.5326 0057361 336.1614  23.6945 14.82059391334803
UWE-3                   
1 39446U 13066AG  20039.87741679  .00000224  00000-0  36294-4 0  9991
2 39446  97.5906  36.8187 0070329  13.8110 346.5005 14.78490397334018
AEROCUBE 5A             
1 39465U 13072D   20039.91961293  .00005496  00000-0  45048-3 0  9992
2 39465 120.4987  54.4398 0280979 111.8651 251.2526 14.75068205 22242
AEROCUBE 5B             
1 39466U 13072E   20040.82425630  .00006251  00000-0  43669-3 0  9992
2 39466 120.4958  87.6387 0254348 119.8530 242.8058 14.84351054 22469
BRITE-CA1 (TORONTO)     
1 40020U 14033L   20040.80941611  .00000097  00000-0  24572-4 0  9993
2 40020  97.7318 236.3613 0088603 122.7766 238.2015 14.66621133301911
DUCHIFAT-1              
1 40021U 14033M   20040.34853744  .00000484  00000-0  54993-4 0  9992
2 40021  97.9365 330.8593 0012961 359.6889   0.4319 14.90806502306658
NANOSATC-BR1            
1 40024U 14033Q   20040.03143283  .00000243  00000-0  31099-4 0  9996
2 40024  97.9232 327.3222 0012365   5.2678 354.8667 14.89990737306487
QB50P1                  
1 40025U 14033R   20039.83439332  .00000190  00000-0  26179-4 0  9990
2 40025  97.9128 324.1929 0012754  12.4720 347.6810 14.89066375305808
QB50P2                  
1 40032U 14033Y   20040.64926220  .00000242  00000-0  31965-4 0  9993
2 40032  97.9032 322.7432 0012037   6.9024 353.2356 14.88597141306349
PERSEUS-M2              
1 40037U 14033AD  20040.22500283  .00000092  00000-0  16585-4 0  9993
2 40037  97.8914 317.5324 0014911  21.4875 338.6963 14.86514034305464
PERSEUS-M1              
1 40039U 14033AF  20040.20157209  .00000092  00000-0  16730-4 0  9991
2 40039  97.8886 316.4108 0014710  19.5113 340.6662 14.86133976305373
POLYITAN-1              
1 40042U 14033AJ  20039.80807039  .00000355  00000-0  43929-4 0  9994
2 40042  97.9211 324.6111 0014748   2.0377 358.0897 14.88800110305708
TIGRISAT                
1 40043U 14033AK  20040.13375884  .00000130  00000-0  26362-4 0  9994
2 40043  97.7265 262.4976 0061159  57.3269 303.3819 14.74339058302993
AEROCUBE 6A             
1 40045U 14033AM  20040.16370941  .00000281  00000-0  47482-4 0  9991
2 40045  97.7513 267.3821 0058832  49.1016 311.5269 14.75514001303048
AEROCUBE 6B             
1 40046U 14033AN  20040.10424561  .00000270  00000-0  45876-4 0  9997
2 40046  97.7432 266.7369 0058117  48.6448 311.9740 14.75492682303417
UKUBE-1                 
1 40074U 14037F   20040.80513785  .00000247  00000-0  36727-4 0  9995
2 40074  98.4521 221.4920 0004348 156.3029 203.8413 14.84189145302675
BRITE-PL2 (HEWELIUSZ)   
1 40119U 14049B   20040.17290010  .00000118  00000-0  20407-4 0  9996
2 40119  97.8970 133.6822 0017801 167.3894 192.7770 14.84468602296606
FIREBIRD 4              
1 40378U 15003C   20040.73521618  .00002131  00000-0  85539-4 0  9991
2 40378  99.1118  74.6194 0125579  24.1308 336.5735 15.19599847277760
GRIFEX                  
1 40379U 15003D   20040.66361835  .00001566  00000-0  69322-4 0  9990
2 40379  99.1181  67.1811 0134518  46.7804 314.4564 15.16063950277334
EXOCUBE (CP10)          
1 40380U 15003E   20040.16466832  .00001488  00000-0  69043-4 0  9993
2 40380  99.1243  62.5972 0139679  61.6196 299.9031 15.14046141276982
AEROCUBE 8A             
1 40659U 15025J   20039.91996502  .00018239  00000-0  21350-3 0  9999
2 40659  55.0173 171.0627 0114503 198.2792 161.4113 15.54020742 23397
AEROCUBE 8B             
1 40660U 15025K   20039.73245059  .00018669  00000-0  21685-3 0  9993
2 40660  55.0147 170.1973 0113575 199.5148 160.1524 15.54305516 23376
TIANWANG 1C (TW-1C)     
1 40926U 15051B   20040.07659819  .00017505  00000-0  20830-3 0  9998
2 40926  97.1045  91.3065 0005954 196.5344 190.7221 15.61162558246811
TIANWANG 1A (TW-1A)     
1 40928U 15051D   20040.08829338  .00002690  00000-0  65129-4 0  9996
2 40928  97.1243  71.0247 0008896 304.0654 121.5487 15.41930172245434
EXACTVIEW 9             
1 40936U 15052G   20040.08848452  .00000739  00000-0  14175-4 0  9991
2 40936   6.0024 182.7191 0011000 234.8062 125.1036 14.76541114236072
AEROCUBE 5C             
1 40965U 15058B   20040.49692362  .00000075  00000-0  28736-4 0  9992
2 40965  64.7780 174.4523 0170881 121.9831 239.8011 14.74474890 22291
AEROCUBE 7              
1 40966U 15058C   20040.50303889  .00000118  00000-0  33720-4 0  9995
2 40966  64.7780 173.0934 0169760 121.7133 240.0647 14.74764730 22294
ATHENOXAT 1             
1 41168U 15077C   20040.85301720  .00001891  00000-0  63922-4 0  9997
2 41168  14.9880 284.7841 0011398 138.8732 221.2448 15.14094441229829
GALASSIA                
1 41170U 15077E   20039.34652674  .00001867  00000-0  61852-4 0  9992
2 41170  14.9884 288.1222 0012706 143.5580 216.5607 15.14404590229661
VELOX-II                
1 41171U 15077F   20040.04779065  .00001475  00000-0  46108-4 0  9998
2 41171  14.9918 323.1928 0008707  57.1516 302.9642 15.11512441229412
